{"type": "FeatureCollection", "features": [ {"type": "Feature", "properties": {"norad_id": 32088, "name": "FENGYUN 1C DEB", "group": "fengyun-1c-debris", "lat": -10.93439017378933, "lon": 29.69609152724283, "alt_km": 1507.3251508554195, "timestamp": "2025-12-12T05:47:29.056374+00:00", "meta": {"OBJECT_NAME": "FENGYUN 1C DEB", "OBJECT_ID": "1999-025CQE", "EPOCH": "2025-12-10T09:20:21.764256", "MEAN_MOTION": 13.25167395, "ECCENTRICITY": 0.04614879, "INCLINATION": 102.3999, "RA_OF_ASC_NODE": 209.9224, "ARG_OF_PERICENTER": 2.0508, "MEAN_ANOMALY": 358.2365, "EPHEMERIS_TYPE": 0, "CLASSIFICATION_TYPE": "U", "NORAD_CAT_ID": 32088, "ELEMENT_SET_NO": 999, "REV_AT_EPOCH": 59813, "BSTAR": 0.0045517197, "MEAN_MOTION_DOT": 3.447e-05, "MEAN_MOTION_DDOT": 0}, "tle": {"line1": "1 32088U 99025CQE 25344.38914079  .00003447  00000+0  45517-2 0  9996", "line2": "2 32088 102.3999 209.9224 0461487   2.0508 358.2365 13.25167395598139"}}, "geometry": {"type": "Point", "coordinates": [29.69609152724283, -10.93439017378933]}}, {"type": "Feature", "properties": {"norad_id": 32089, "name": "FENGYUN 1C DEB", "group": "fengyun-1c-debris", "lat": 50.042246418653164, "lon": -177.69455880566778, "alt_km": 759.9781852065162, "timestamp": "2025-12-12T05:47:29.056386+00:00", "meta": {"OBJECT_NAME": "FENGYUN 1C DEB", "OBJECT_ID": "1999-025CQF", "EPOCH": "2025-12-07T06:18:49.554720", "MEAN_MOTION": 14.14051186, "ECCENTRICITY": 0.01122042, "INCLINATION": 98.6543, "RA_OF_ASC_NODE": 347.0104, "ARG_OF_PERICENTER": 139.5963, "MEAN_ANOMALY": 221.3612, "EPHEMERIS_TYPE": 0, "CLASSIFICATION_TYPE": "U", "NORAD_CAT_ID": 32089, "ELEMENT_SET_NO": 999, "REV_AT_EPOCH": 63138, "BSTAR": 0.00086316915, "MEAN_MOTION_DOT": 1.702e-05, "MEAN_MOTION_DDOT": 0}, "tle": {"line1": "1 32089U 99025CQF 25341.26307355  .00001702  00000+0  86317-3 0  9990", "line2": "2 32089  98.6543 347.0104 0112204 139.5963 221.3612 14.14051186631383"}}, "geometry": {"type": "Point", "coordinates": [-177.69455880566778, 50.042246418653164]}}, {"type": "Feature", "properties": {"norad_id": 32093, "name": "FENGYUN 1C DEB", "group": "fengyun-1c-debris", "lat": -14.420918973505557, "lon": -158.62924285202632, "alt_km": 715.0058845561398, "timestamp": "2025-12-12T05:47:29.056398+00:00", "meta": {"OBJECT_NAME": "FENGYUN 1C DEB", "OBJECT_ID": "1999-025CQK", "EPOCH": "2025-12-11T01:27:41.674464", "MEAN_MOTION": 14.37599237, "ECCENTRICITY": 0.00794782, "INCLINATION": 98.9197, "RA_OF_ASC_NODE": 197.8321, "ARG_OF_PERICENTER": 358.4978, "MEAN_ANOMALY": 1.5957, "EPHEMERIS_TYPE": 0, "CLASSIFICATION_TYPE": "U", "NORAD_CAT_ID": 32093, "ELEMENT_SET_NO": 999, "REV_AT_EPOCH": 96493, "BSTAR": 0.00061075905, "MEAN_MOTION_DOT": 1.852e-05, "MEAN_MOTION_DDOT": 0}, "tle": {"line1": "1 32093U 99025CQK 25345.06089901  .00001852  00000+0  61076-3 0  9992", "line2": "2 32093  98.9197 197.8321 0079478 358.4978   1.5957 14.37599237964930"}}, "geometry": {"type": "Point", "coordinates": [-158.62924285202632, -14.420918973505557]}}, {"type": "Feature", "properties": {"norad_id": 32094, "name": "FENGYUN 1C DEB", "group": "fengyun-1c-debris", "lat": -0.261304367291664, "lon": 156.6273820754835, "alt_km": 859.7043268614925, "timestamp": "2025-12-12T05:47:29.056409+00:00", "meta": {"OBJECT_NAME": "FENGYUN 1C DEB", "OBJECT_ID": "1999-025CQL", "EPOCH": "2025-12-11T22:07:39.582624", "MEAN_MOTION": 14.10725237, "ECCENTRICITY": 0.00340646, "INCLINATION": 98.7447, "RA_OF_ASC_NODE": 336.3569, "ARG_OF_PERICENTER": 270.97, "MEAN_ANOMALY": 88.7568, "EPHEMERIS_TYPE": 0, "CLASSIFICATION_TYPE": "U", "NORAD_CAT_ID": 32094, "ELEMENT_SET_NO": 999, "REV_AT_EPOCH": 94353, "BSTAR": 0.00058115716, "MEAN_MOTION_DOT": 1.001e-05, "MEAN_MOTION_DDOT": 0}, "tle": {"line1": "1 32094U 99025CQL 25345.92198591  .00001001  00000+0  58116-3 0  9991", "line2": "2 32094  98.7447 336.3569 0034064 270.9700  88.7568 14.10725237943534"}}, "geometry": {"type": "Point", "coordinates": [156.6273820754835, -0.261304367291664]}}, {"type": "Feature", "properties": {"norad_id": 32095, "name": "FENGYUN 1C DEB", "group": "fengyun-1c-debris", "lat": -17.66588603713461, "lon": 4.64770402309084, "alt_km": 864.0560910621934, "timestamp": "2025-12-12T05:47:29.056421+00:00", "meta": {"OBJECT_NAME": "FENGYUN 1C DEB", "OBJECT_ID": "1999-025CQM", "EPOCH": "2025-12-10T18:15:48.775680", "MEAN_MOTION": 14.1603598, "ECCENTRICITY": 0.007925, "INCLINATION": 98.6416, "RA_OF_ASC_NODE": 0.4354, "ARG_OF_PERICENTER": 97.7684, "MEAN_ANOMALY": 263.2497, "EPHEMERIS_TYPE": 0, "CLASSIFICATION_TYPE": "U", "NORAD_CAT_ID": 32095, "ELEMENT_SET_NO": 999, "REV_AT_EPOCH": 94789, "BSTAR": 0.00038358282, "MEAN_MOTION_DOT": 7.39e-06, "MEAN_MOTION_DDOT": 0}, "tle": {"line1": "1 32095U 99025CQM 25344.76098120  .00000739  00000+0  38358-3 0  9993", "line2": "2 32095  98.6416   0.4354 0079250  97.7684 263.2497 14.16035980947892"}}, "geometry": {"type": "Point", "coordinates": [4.64770402309084, -17.66588603713461]}}, {"type": "Feature", "properties": {"norad_id": 32096, "name": "FENGYUN 1C DEB", "group": "fengyun-1c-debris", "lat": -1.1584550735602468, "lon": -164.93923638470866, "alt_km": 854.8807161397772, "timestamp": "2025-12-12T05:47:29.056431+00:00", "meta": {"OBJECT_NAME": "FENGYUN 1C DEB", "OBJECT_ID": "1999-025CQN", "EPOCH": "2025-12-11T13:23:11.364288", "MEAN_MOTION": 13.90183528, "ECCENTRICITY": 0.01345891, "INCLINATION": 99.0751, "RA_OF_ASC_NODE": 14.5789, "ARG_OF_PERICENTER": 143.12, "MEAN_ANOMALY": 217.9308, "EPHEMERIS_TYPE": 0, "CLASSIFICATION_TYPE": "U", "NORAD_CAT_ID": 32096, "ELEMENT_SET_NO": 999, "REV_AT_EPOCH": 92845, "BSTAR": 0.0016952038, "MEAN_MOTION_DOT": 2.214e-05, "MEAN_MOTION_DDOT": 0}, "tle": {"line1": "1 32096U 99025CQN 25345.55777042  .00002214  00000+0  16952-2 0  9994", "line2": "2 32096  99.0751  14.5789 0134589 143.1200 217.9308 13.90183528928456"}}, "geometry": {"type": "Point", "coordinates": [-164.93923638470866, -1.1584550735602468]}}, {"type": "Feature", "properties": {"norad_id": 32098, "name": "FENGYUN 1C DEB", "group": "fengyun-1c-debris", "lat": 11.79549209371078, "lon": 160.51205518600005, "alt_km": 727.6827545783817, "timestamp": "2025-12-12T05:47:29.056441+00:00", "meta": {"OBJECT_NAME": "FENGYUN 1C DEB", "OBJECT_ID": "1999-025CQQ", "EPOCH": "2025-12-07T16:48:26.372736", "MEAN_MOTION": 14.20247103, "ECCENTRICITY": 0.01956961, "INCLINATION": 98.6122, "RA_OF_ASC_NODE": 334.2744, "ARG_OF_PERICENTER": 134.3457, "MEAN_ANOMALY": 227.3945, "EPHEMERIS_TYPE": 0, "CLASSIFICATION_TYPE": "U", "NORAD_CAT_ID": 32098, "ELEMENT_SET_NO": 999, "REV_AT_EPOCH": 64156, "BSTAR": 0.00042642559, "MEAN_MOTION_DOT": 1.061e-05, "MEAN_MOTION_DDOT": 0}, "tle": {"line1": "1 32098U 99025CQQ 25341.70030524  .00001061  00000+0  42643-3 0  9992", "line2": "2 32098  98.6122 334.2744 0195696 134.3457 227.3945 14.20247103641560"}}, "geometry": {"type": "Point", "coordinates": [160.51205518600005, 11.79549209371078]}}, {"type": "Feature", "properties": {"norad_id": 32099, "name": "FENGYUN 1C DEB", "group": "fengyun-1c-debris", "lat": -18.251336050171524, "lon": -39.1168983671559, "alt_km": 815.162136942763, "timestamp": "2025-12-12T05:47:29.056452+00:00", "meta": {"OBJECT_NAME": "FENGYUN 1C DEB", "OBJECT_ID": "1999-025CQR", "EPOCH": "2025-12-07T16:21:06.488640", "MEAN_MOTION": 13.91730648, "ECCENTRICITY": 0.03431256, "INCLINATION": 98.2813, "RA_OF_ASC_NODE": 314.0479, "ARG_OF_PERICENTER": 289.2145, "MEAN_ANOMALY": 254.692, "EPHEMERIS_TYPE": 0, "CLASSIFICATION_TYPE": "U", "NORAD_CAT_ID": 32099, "ELEMENT_SET_NO": 999, "REV_AT_EPOCH": 64617, "BSTAR": 0.0024627177, "MEAN_MOTION_DOT": 5.024e-05, "MEAN_MOTION_DDOT": 0}, "tle": {"line1": "1 32099U 99025CQR 25341.68132510  .00005024  00000+0  24627-2 0  9992", "line2": "2 32099  98.2813 314.0479 0343125 289.2145 254.6920 13.91730648646177"}}, "geometry": {"type": "Point", "coordinates": [-39.1168983671559, -18.251336050171524]}}, {"type": "Feature", "properties": {"norad_id": 32101, "name": "FENGYUN 1C DEB", "group": "fengyun-1c-debris", "lat": 44.68817424792226, "lon": -123.74607980673984, "alt_km": 969.1135677775155, "timestamp": "2025-12-12T05:47:29.056462+00:00", "meta": {"OBJECT_NAME": "FENGYUN 1C DEB", "OBJECT_ID": "1999-025CQT", "EPOCH": "2025-12-11T22:43:06.837888", "MEAN_MOTION": 14.01642712, "ECCENTRICITY": 0.01208798, "INCLINATION": 99.031, "RA_OF_ASC_NODE": 245.0134, "ARG_OF_PERICENTER": 241.0307, "MEAN_ANOMALY": 117.8696, "EPHEMERIS_TYPE": 0, "CLASSIFICATION_TYPE": "U", "NORAD_CAT_ID": 32101, "ELEMENT_SET_NO": 999, "REV_AT_EPOCH": 93171, "BSTAR": 0.0030218444, "MEAN_MOTION_DOT": 4.838e-05, "MEAN_MOTION_DDOT": 0}, "tle": {"line1": "1 32101U 99025CQT 25345.94660692  .00004838  00000+0  30218-2 0  9991", "line2": "2 32101  99.0310 245.0134 0120879 241.0307 117.8696 14.01642712931711"}}, "geometry": {"type": "Point", "coordinates": [-123.74607980673984, 44.68817424792226]}}, {"type": "Feature", "properties": {"norad_id": 32105, "name": "FENGYUN 1C DEB", "group": "fengyun-1c-debris", "lat": 69.87881311529522, "lon": -161.6130021681869, "alt_km": 840.1889251502498, "timestamp": "2025-12-12T05:47:29.056472+00:00", "meta": {"OBJECT_NAME": "FENGYUN 1C DEB", "OBJECT_ID": "1999-025CQX", "EPOCH": "2025-12-06T04:11:30.067584", "MEAN_MOTION": 13.40226263, "ECCENTRICITY": 0.03939271, "INCLINATION": 103.4626, "RA_OF_ASC_NODE": 329.5114, "ARG_OF_PERICENTER": 88.9087, "MEAN_ANOMALY": 275.7122, "EPHEMERIS_TYPE": 0, "CLASSIFICATION_TYPE": "U", "NORAD_CAT_ID": 32105, "ELEMENT_SET_NO": 999, "REV_AT_EPOCH": 59623, "BSTAR": 0.0040140571, "MEAN_MOTION_DOT": 3.389e-05, "MEAN_MOTION_DDOT": 0}, "tle": {"line1": "1 32105U 99025CQX 25340.17465356  .00003389  00000+0  40141-2 0  9991", "line2": "2 32105 103.4626 329.5114 0393927  88.9087 275.7122 13.40226263596233"}}, "geometry": {"type": "Point", "coordinates": [-161.6130021681869, 69.87881311529522]}}]}